[{"OBJECT_NAME":"STARLINK-5857","OBJECT_ID":"2023-037AJ","EPOCH":"2026-03-09T22:00:01.999584","MEAN_MOTION":14.98333401,"ECCENTRICITY":0.00026408,"INCLINATION":70.0002,"RA_OF_ASC_NODE":283.7999,"ARG_OF_PERICENTER":273.5766,"MEAN_ANOMALY":179.157,"EPHEMERIS_TYPE":0,"CLASSIFICATION_TYPE":"U","NORAD_CAT_ID":55946,"ELEMENT_SET_NO":999,"REV_AT_EPOCH":571,"BSTAR":0.0014450745,"MEAN_MOTION_DOT":0.00017193,"MEAN_MOTION_DDOT":0},{"OBJECT_NAME":"CZ-4B DEB","OBJECT_ID":"2006-015D","EPOCH":"2026-03-08T23:49:50.125728","MEAN_MOTION":14.74549733,"ECCENTRICITY":0.01202299,"INCLINATION":97.7844,"RA_OF_ASC_NODE":81.2278,"ARG_OF_PERICENTER":82.9024,"MEAN_ANOMALY":278.5839,"EPHEMERIS_TYPE":0,"CLASSIFICATION_TYPE":"U","NORAD_CAT_ID":29537,"ELEMENT_SET_NO":999,"REV_AT_EPOCH":4708,"BSTAR":0.0014359335,"MEAN_MOTION_DOT":0.00010702,"MEAN_MOTION_DDOT":0}]
